TYVAK-0173              
1 48892U 21059P   26196.15197110  .00000795  00000+0  10425-3 0  9992
2 48892  96.0074 265.5572 0007259 300.1893  59.8605 14.81971393272389
MANDRAKE 2 ABLE         
1 48907U 21059AE  26196.47833039  .00012641  00000+0  18274-3 0  9994
2 48907  97.7021  28.4436 0003816 233.0356 127.0548 15.56078613281520
MANDRAKE 2 BAKER        
1 48908U 21059AF  26196.51647292  .00019571  00000+0  23457-3 0  9992
2 48908  97.6985  31.5602 0002751 216.9228 143.1840 15.60983182281710
PACE-1                  
1 48909U 21059AG  26196.54535445  .00094410  00000+0  39472-3 0  9991
2 48909  97.6725  38.0029 0003407 180.1043 180.0227 15.85366024282283
YAM-3                   
1 48915U 21059AN  26196.55824006  .00007513  00000+0  13997-3 0  9995
2 48915  97.6990  25.3805 0003941 240.2968 119.7890 15.49154170281384
FARADAY_PHOENIX         
1 48924U 21059AX  26196.47807553  .00150494  00000+0  57363-3 0  9996
2 48924  97.6766  37.8400 0005755 197.3820 162.7255 15.87123553282138
DEMO8 (TENZING)         
1 48951U 21059CA  26196.54594251  .00013315  00000+0  19260-3 0  9996
2 48951  97.7005  32.1460 0005719 229.9505 130.1248 15.56038491281717
FENGYUN 3E              
1 49008U 21062A   26196.59984575 -.00000231  00000+0 -88290-4 0  9996
2 49008  98.7495 199.6916 0002278  37.9591 322.1746 14.19905805260611
ISS (NAUKA)             
1 49044U 21066A   26196.37932006  .00003801  00000+0  77082-4 0  9999
2 49044  51.6310 160.5727 0006717 298.6245  61.4067 15.49014944575129
STARLINK-3100           
1 49144U 21082Q   26196.54678616 -.00001101  00000+0 -84526-4 0  9995
2 49144  70.0003 332.0726 0002909 265.3424  94.7402 14.98326663265134
CUTE                    
1 49263U 21088D   26196.24241913  .02649175  24520-5  10546-2 0  9993
2 49263  97.3980 298.6010 0012002 281.4167  78.5776 16.23504047267043
2021-091B               
1 49316U 21091B   26196.59087412  .00001587  00000+0  79706-4 0  9999
2 49316  97.4468  23.7354 0012002 306.5674  53.4455 15.18682451263292
SDGSAT 1                
1 49387U 21100A   26196.61918833  .00001016  00000+0  51287-4 0  9992
2 49387  97.2616 242.4813 0009816 161.4172 198.7423 15.19237806260233
TEIKYOSAT-4 (OORURI)    
1 49396U 21102B   26196.02736189  .00001166  00000+0  76258-4 0  9992
2 49396  97.3665 224.4287 0011715 189.0693 171.0327 15.09598352256921
Z-SAT                   
1 49399U 21102E   26196.60192455  .00002198  00000+0  10950-3 0  9993
2 49399  97.3310 231.0633 0017639 142.9448 217.3008 15.18465501257758
HIBARI                  
1 49400U 21102F   26196.09187288  .00006652  00000+0  21539-3 0  9991
2 49400  97.3220 241.6844 0013302 101.7121 258.5614 15.32277830258467
KOSEN-1                 
1 49402U 21102H   26196.05696261  .00004499  00000+0  17088-3 0  9996
2 49402  97.3170 237.6768 0015405 108.0940 252.1979 15.27213078258279
GLOBAL-14               
1 49469U 21106A   26196.15725537  .00016065  00000+0  26475-3 0  9995
2 49469  42.0036 124.6908 0017791 223.8384 136.1049 15.51825931262479
GAOFEN-3 02             
1 49495U 21109A   26196.56320586  .00000025  00000+0  20655-4 0  9991
2 49495  98.4086 204.2572 0001329 266.8520  93.2518 14.42220397244400
GLOBAL-12               
1 49772U 21115BA  26196.49114462  .00019489  00000+0  28828-3 0  9995
2 49772  53.1942 268.2651 0002901  71.6816 288.4511 15.55342312260307
GLOBAL-13               
1 49773U 21115BB  26196.55319899  .00012684  00000+0  25423-3 0  9992
2 49773  53.1972 279.6327 0000532 153.6023 206.5013 15.47121021260150
GLOBAL-17               
1 49949U 21120A   26196.57788431  .00017117  00000+0  26377-3 0  9992
2 49949  41.9930 239.9281 0013343  93.8400 266.3971 15.53730283259316
GLOBAL-16               
1 49950U 21120B   26196.56650818  .00015629  00000+0  26176-3 0  9993
2 49950  41.9931 244.2767 0011439  83.1889 277.0256 15.51494616259257
XW-3 (CAS-9)            
1 50466U 21131B   26196.58563484  .00000200  00000+0  75294-4 0  9998
2 50466  98.4994 288.8222 0004565  29.4904 330.6542 14.41381915239202
ION SCV-004             
1 50993U 22002K   26196.21592979  .00002826  00000+0  97711-4 0  9996
2 50993  97.2819 253.3504 0005703 246.8979 113.1661 15.30708165249589
ETV-A1                  
1 51060U 22002CE  26196.58582948  .00006389  00000+0  15576-3 0  9993
2 51060  97.2864 262.8180 0003959 223.7471 136.3463 15.41238976250211
BRO-5                   
1 51061U 22002CF  26196.56130983  .00020389  00000+0  37925-3 0  9998
2 51061  97.2988 270.5105 0005408 202.0730 158.0289 15.48896553250643
LUDI TANCE 1-01A (L-SA*)
1 51284U 22007A   26196.61811610  .00000286  00000+0  36736-4 0  9993
2 51284  97.8106 203.6345 0001625  91.4846 268.6557 14.88420037242703
LUDI TANCE 1-01B (L-SA*)
1 51822U 22018A   26196.58451091  .00000280  00000+0  36064-4 0  9990
2 51822  97.8110 203.5997 0001619  91.8833 268.2569 14.88414074237933
