OBJECT_NAME,OBJECT_ID,EPOCH,MEAN_MOTION,ECCENTRICITY,INCLINATION,RA_OF_ASC_NODE,ARG_OF_PERICENTER,MEAN_ANOMALY,EPHEMERIS_TYPE,CLASSIFICATION_TYPE,NORAD_CAT_ID,ELEMENT_SET_NO,REV_AT_EPOCH,BSTAR,MEAN_MOTION_DOT,MEAN_MOTION_DDOT
TYVAK-0173,2021-059P,2026-07-15T03:38:50.303040,14.81971393,.00072597,96.0074,265.5572,300.1893,59.8605,0,U,48892,999,27238,.10424673E-3,.795E-5,0
MANDRAKE 2 ABLE,2021-059AE,2026-07-15T11:28:47.745696,15.56078613,.00038166,97.7021,28.4436,233.0356,127.0548,0,U,48907,999,28152,.18274168E-3,.12641E-3,0
MANDRAKE 2 BAKER,2021-059AF,2026-07-15T12:23:43.260288,15.60983182,.00027514,97.6985,31.5602,216.9228,143.1840,0,U,48908,999,28171,.23457207E-3,.19571E-3,0
PACE-1,2021-059AG,2026-07-15T13:05:18.624480,15.85366024,.00034078,97.6725,38.0029,180.1043,180.0227,0,U,48909,999,28228,.39471655E-3,.9441E-3,0
YAM-3,2021-059AN,2026-07-15T13:23:51.941184,15.49154170,.00039414,97.6990,25.3805,240.2968,119.7890,0,U,48915,999,28138,.13996975E-3,.7513E-4,0
FARADAY_PHOENIX,2021-059AX,2026-07-15T11:28:25.725792,15.87123553,.00057555,97.6766,37.8400,197.3820,162.7255,0,U,48924,999,28213,.57363129E-3,.150494E-2,0
DEMO8 (TENZING),2021-059CA,2026-07-15T13:06:09.432864,15.56038491,.0005719,97.7005,32.1460,229.9505,130.1248,0,U,48951,999,28171,.19260208E-3,.13315E-3,0
FENGYUN 3E,2021-062A,2026-07-15T14:23:46.672800,14.19905805,.00022781,98.7495,199.6916,37.9591,322.1746,0,U,49008,999,26061,-.8828977E-4,-.231E-5,0
ISS (NAUKA),2021-066A,2026-07-15T09:06:13.253184,15.49014944,.00067175,51.6310,160.5727,298.6245,61.4067,0,U,49044,999,57512,.77082068E-4,.3801E-4,0
STARLINK-3100,2021-082Q,2026-07-15T13:07:22.324224,14.98326663,.00029093,70.0003,332.0726,265.3424,94.7402,0,U,49144,999,26513,-.84525885E-4,-.1101E-4,0
CUTE,2021-088D,2026-07-15T05:49:05.012832,16.23504047,.00120021,97.3980,298.6010,281.4167,78.5776,0,U,49263,999,26704,.10546E-2,.2649175E-1,.2451982E-5
2021-091B,2021-091B,2026-07-15T14:10:51.523968,15.18682451,.0012002,97.4468,23.7354,306.5674,53.4455,0,U,49316,999,26329,.79705557E-4,.1587E-4,0
SDGSAT 1,2021-100A,2026-07-15T14:51:37.871712,15.19237806,.00098166,97.2616,242.4813,161.4172,198.7423,0,U,49387,999,26023,.5128702E-4,.1016E-4,0
TEIKYOSAT-4 (OORURI),2021-102B,2026-07-15T00:39:24.067296,15.09598352,.00117156,97.3665,224.4287,189.0693,171.0327,0,U,49396,999,25692,.76258386E-4,.1166E-4,0
Z-SAT,2021-102E,2026-07-15T14:26:46.281120,15.18465501,.00176391,97.3310,231.0633,142.9448,217.3008,0,U,49399,999,25775,.10949888E-3,.2198E-4,0
HIBARI,2021-102F,2026-07-15T02:12:17.816832,15.32277830,.0013302,97.3220,241.6844,101.7121,258.5614,0,U,49400,999,25846,.21538896E-3,.6652E-4,0
KOSEN-1,2021-102H,2026-07-15T01:22:01.569504,15.27213078,.00154056,97.3170,237.6768,108.0940,252.1979,0,U,49402,999,25827,.17087955E-3,.4499E-4,0
GLOBAL-14,2021-106A,2026-07-15T03:46:26.863968,15.51825931,.00177914,42.0036,124.6908,223.8384,136.1049,0,U,49469,999,26247,.26474874E-3,.16065E-3,0
GAOFEN-3 02,2021-109A,2026-07-15T13:31:00.986304,14.42220397,.00013295,98.4086,204.2572,266.8520,93.2518,0,U,49495,999,24440,.20654595E-4,.25E-6,0
GLOBAL-12,2021-115BA,2026-07-15T11:47:14.895168,15.55342312,.00029019,53.1942,268.2651,71.6816,288.4511,0,U,49772,999,26030,.28827895E-3,.19489E-3,0
GLOBAL-13,2021-115BB,2026-07-15T13:16:36.392736,15.47121021,.00005321,53.1972,279.6327,153.6023,206.5013,0,U,49773,999,26015,.25423234E-3,.12684E-3,0
GLOBAL-17,2021-120A,2026-07-15T13:52:09.204384,15.53730283,.00133431,41.9930,239.9281,93.8400,266.3971,0,U,49949,999,25931,.26377035E-3,.17117E-3,0
GLOBAL-16,2021-120B,2026-07-15T13:35:46.306752,15.51494616,.00114398,41.9931,244.2767,83.1889,277.0256,0,U,49950,999,25925,.26176022E-3,.15629E-3,0
XW-3 (CAS-9),2021-131B,2026-07-15T14:03:18.850176,14.41381915,.00045652,98.4994,288.8222,29.4904,330.6542,0,U,50466,999,23920,.75294282E-4,.2E-5,0
ION SCV-004,2022-002K,2026-07-15T05:10:56.333856,15.30708165,.00057034,97.2819,253.3504,246.8979,113.1661,0,U,50993,999,24958,.97711283E-4,.2826E-4,0
ETV-A1,2022-002CE,2026-07-15T14:03:35.667072,15.41238976,.00039593,97.2864,262.8180,223.7471,136.3463,0,U,51060,999,25021,.15576386E-3,.6389E-4,0
BRO-5,2022-002CF,2026-07-15T13:28:17.169312,15.48896553,.00054088,97.2988,270.5105,202.0730,158.0289,0,U,51061,999,25064,.37924576E-3,.20389E-3,0
LUDI TANCE 1-01A (L-SAR 01A),2022-007A,2026-07-15T14:50:05.231040,14.88420037,.00016253,97.8106,203.6345,91.4846,268.6557,0,U,51284,999,24270,.36735536E-4,.286E-5,0
LUDI TANCE 1-01B (L-SAR 01B),2022-018A,2026-07-15T14:01:41.742624,14.88414074,.00016198,97.8110,203.5997,91.8833,268.2569,0,U,51822,999,23793,.36064347E-4,.28E-5,0
